[{"OBJECT_NAME":"STARLINK-3908","OBJECT_ID":"2022-049AS","EPOCH":"2026-03-09T08:55:00.667200","MEAN_MOTION":15.08843523,"ECCENTRICITY":0.00016168,"INCLINATION":53.2177,"RA_OF_ASC_NODE":50.5481,"ARG_OF_PERICENTER":84.0688,"MEAN_ANOMALY":276.0489,"EPHEMERIS_TYPE":0,"CLASSIFICATION_TYPE":"U","NORAD_CAT_ID":52491,"ELEMENT_SET_NO":999,"REV_AT_EPOCH":21234,"BSTAR":5.6010813e-5,"MEAN_MOTION_DOT":6.04e-6,"MEAN_MOTION_DDOT":0},{"OBJECT_NAME":"H-2A R\/B","OBJECT_ID":"2025-141B","EPOCH":"2026-03-09T20:50:08.593728","MEAN_MOTION":14.90469893,"ECCENTRICITY":0.00923902,"INCLINATION":98.076,"RA_OF_ASC_NODE":17.3096,"ARG_OF_PERICENTER":151.0716,"MEAN_ANOMALY":209.5668,"EPHEMERIS_TYPE":0,"CLASSIFICATION_TYPE":"U","NORAD_CAT_ID":64695,"ELEMENT_SET_NO":999,"REV_AT_EPOCH":3783,"BSTAR":0.00033350933,"MEAN_MOTION_DOT":3.464e-5,"MEAN_MOTION_DDOT":0}]
